GPS BIIA-23 (PRN 18)    
1 22877U 93068A   18330.24006407 -.00000022  00000-0  00000+0 0  9994
2 22877  54.5405  76.8593 0147547  77.9996 334.5249  2.00570032183791
GPS BIIR-2  (PRN 13)    
1 24876U 97035A   18330.06461891  .00000053  00000-0  00000+0 0  9998
2 24876  55.4707 206.4212 0034150  80.0409 280.4412  2.00564162156401
GPS BIIR-3  (PRN 11)    
1 25933U 99055A   18329.62852567 -.00000053  00000-0  00000+0 0  9992
2 25933  51.9972  54.6663 0165612 105.8245 226.9086  2.00563299140209
GPS BIIR-4  (PRN 20)    
1 26360U 00025A   18330.13009949  .00000059  00000-0  00000+0 0  9997
2 26360  53.2558 132.9097 0042889 126.5258 254.5145  2.00563060135904
GPS BIIR-5  (PRN 28)    
1 26407U 00040A   18330.27715500 -.00000034  00000-0  00000+0 0  9992
2 26407  56.3899 324.5494 0198457 274.2602 189.4395  2.00561479134583
GPS BIIR-6  (PRN 14)    
1 26605U 00071A   18330.18127212  .00000053  00000-0  00000+0 0  9993
2 26605  55.0444 203.9449 0102037 248.9727  54.8356  2.00566212132186
GPS BIIR-8  (PRN 16)    
1 27663U 03005A   18330.21956448 -.00000033  00000-0  00000+0 0  9992
2 27663  56.4524 324.3171 0100779  28.5165 153.0330  2.00556909115945
GPS BIIR-9  (PRN 21)    
1 27704U 03010A   18330.55815291 -.00000023  00000-0  00000+0 0  9990
2 27704  54.2134  76.3809 0247542 273.4739 116.5606  2.00573910114753
GPS BIIR-10 (PRN 22)    
1 28129U 03058A   18330.26040163  .00000062  00000-0  00000+0 0  9992
2 28129  53.0684 135.7282 0072132 276.2387  82.9413  2.00565719109448
GPS BIIR-11 (PRN 19)    
1 28190U 04009A   18330.40792935 -.00000065  00000-0  00000+0 0  9998
2 28190  56.2236  25.1162 0092053  75.1183  31.5845  2.00571388107623
GPS BIIR-12 (PRN 23)    
1 28361U 04023A   18330.31787293  .00000055  00000-0  00000+0 0  9993
2 28361  54.0510 198.5151 0127847 227.8828  87.3647  2.00561213105701
GPS BIIR-13 (PRN 02)    
1 28474U 04045A   18330.37012715 -.00000023  00000-0  00000+0 0  9994
2 28474  54.5770  76.0646 0187190 256.4194  99.5784  2.00571858103070
GPS BIIRM-1 (PRN 17)    
1 28874U 05038A   18330.40101431 -.00000065  00000-0  00000+0 0  9995
2 28874  56.3570  22.4458 0131310 259.6098 227.8416  2.00566846 96473
GPS BIIRM-2 (PRN 31)    
1 29486U 06042A   18330.18073133  .00000003  00000-0  00000+0 0  9994
2 29486  55.0956 261.1774 0091001 354.5458 251.4187  2.00550091 89180
GPS BIIRM-3 (PRN 12)    
1 29601U 06052A   18330.27911111 -.00000032  00000-0  00000+0 0  9994
2 29601  56.4301 323.2314 0069032  57.3889 303.2844  2.00556233 88104
GPS BIIRM-4 (PRN 15)    
1 32260U 07047A   18330.09899458  .00000060  00000-0  00000+0 0  9993
2 32260  53.1749 194.3990 0109046  41.3362 319.5796  2.00571584 81481
GPS BIIRM-5 (PRN 29)    
1 32384U 07062A   18330.37244455 -.00000065  00000-0  00000+0 0  9995
2 32384  56.4356  23.0693 0004086  96.6421 238.0715  2.00572834 80218
GPS BIIRM-6 (PRN 07)    
1 32711U 08012A   18330.00595937  .00000004  00000-0  00000+0 0  9991
2 32711  54.8319 260.4231 0122499 218.6979 140.4445  2.00568413 78403
GPS BIIRM-8 (PRN 05)    
1 35752U 09043A   18330.30962404  .00000067  00000-0  00000+0 0  9993
2 35752  54.3634 138.1326 0054438  39.5374 205.0132  2.00573888 67982
GPS BIIF-1  (PRN 25)    
1 36585U 10022A   18330.31901355 -.00000032  00000-0  00000+0 0  9999
2 36585  55.7153 319.6750 0074768  47.4366 314.0324  2.00577079 62235
GPS BIIF-2  (PRN 01)    
1 37753U 11036A   18330.20761314 -.00000015  00000-0  00000+0 0  9991
2 37753  55.7745  79.7915 0080307  38.7651 324.3602  2.00564894 53912
GPS BIIF-3  (PRN 24)    
1 38833U 12053A   18330.18516922  .00000004  00000-0  00000+0 0  9998
2 38833  53.8639 256.8148 0075955  30.2187 330.2475  2.00569802 44977
GPS BIIF-4  (PRN 27)    
1 39166U 13023A   18329.55149032 -.00000061  00000-0  00000+0 0  9993
2 39166  56.0476  19.3225 0061059  22.7175 337.6166  2.00560782 40503
GPS BIIF-5  (PRN 30)    
1 39533U 14008A   18330.04837190  .00000001  00000-0  00000+0 0  9993
2 39533  54.0029 262.1918 0036173 192.4675 167.4653  2.00564810 34889
GPS BIIF-6  (PRN 06)    
1 39741U 14026A   18330.32810982 -.00000016  00000-0  00000+0 0  9992
2 39741  55.7565  79.3110 0013574 286.9126  72.9348  2.00555208 33167
GPS BIIF-7  (PRN 09)    
1 40105U 14045A   18329.41770837  .00000065  00000-0  00000-0 0  9995
2 40105  54.5774 198.7437 0011679  97.3065 262.9260  2.00550492 30734
GPS BIIF-8  (PRN 03)    
1 40294U 14068A   18330.29082483  .00000069  00000-0  00000+0 0  9993
2 40294  55.1150 139.5274 0017232  34.7459 325.3739  2.00568114 29837
GPS BIIF-9  (PRN 26)    
1 40534U 15013A   18329.93022912 -.00000034  00000-0  00000+0 0  9994
2 40534  54.6507 318.2447 0032576 358.6911   1.3024  2.00553842 26894
GPS BIIF-10  (PRN 08)   
1 40730U 15033A   18330.08601567 -.00000064  00000-0  00000+0 0  9994
2 40730  55.5757  18.7336 0039480 333.1150  26.7433  2.00565519 24653
GPS BIIF-11  (PRN 10)   
1 41019U 15062A   18330.13886695  .00000069  00000-0  00000+0 0  9994
2 41019  55.1183 139.3420 0041113 201.6165 158.2175  2.00564478 22473
GPS BIIF-12  (PRN 32)   
1 41328U 16007A   18329.73122735  .00000062  00000-0  00000+0 0  9992
2 41328  54.8249 199.0658 0024593 214.7887 145.1483  2.00556913 20526
